[{"OBJECT_NAME":"STARLINK-1942","OBJECT_ID":"2020-074BH","EPOCH":"2026-03-09T22:04:46.182144","MEAN_MOTION":15.47178759,"ECCENTRICITY":0.00028113,"INCLINATION":53.0469,"RA_OF_ASC_NODE":293.0972,"ARG_OF_PERICENTER":58.7562,"MEAN_ANOMALY":301.3719,"EPHEMERIS_TYPE":0,"CLASSIFICATION_TYPE":"U","NORAD_CAT_ID":46794,"ELEMENT_SET_NO":999,"REV_AT_EPOCH":29710,"BSTAR":0.0020000274,"MEAN_MOTION_DOT":0.00104231,"MEAN_MOTION_DDOT":0},{"OBJECT_NAME":"NUSAT-38 (MARIA AGNESI)","OBJECT_ID":"2023-054AA","EPOCH":"2026-03-09T23:32:56.689152","MEAN_MOTION":15.43783893,"ECCENTRICITY":0.00161894,"INCLINATION":97.3125,"RA_OF_ASC_NODE":338.4726,"ARG_OF_PERICENTER":64.5493,"MEAN_ANOMALY":295.7428,"EPHEMERIS_TYPE":0,"CLASSIFICATION_TYPE":"U","NORAD_CAT_ID":56202,"ELEMENT_SET_NO":999,"REV_AT_EPOCH":16317,"BSTAR":0.00076205358,"MEAN_MOTION_DOT":0.00034663,"MEAN_MOTION_DDOT":0}]
